1 54227U 22147A   23057.76557627  .00004015  00000+0  38850-3 0  9994
2 54227  97.6557  62.3576 0011754 289.3026  70.6922 14.93267766 17014
1 54227U 22147A   23058.23463619  .00004683  00000+0  45206-3 0  9998
2 54227  97.6557  62.8142 0011752 287.5185  72.4751 14.93273951 17082
1 54227U 22147A   23059.44078364  .00004935  00000+0  47601-3 0  9992
2 54227  97.6555  63.9885 0011745 283.0285  76.9623 14.93286351 17265
1 54227U 22147A   23060.44590003  .00003704  00000+0  35857-3 0  9996
2 54227  97.6554  64.9670 0011789 279.1553  80.8333 14.93293293 17411
1 54227U 22147A   23060.91495273  .00003088  00000+0  29985-3 0  9991
2 54227  97.6553  65.4236 0011813 277.3400  82.6477 14.93295780 17482
1 54227U 22147A   23061.71904073  .00003002  00000+0  29160-3 0  9994
2 54227  97.6551  66.2062 0011851 274.1740  85.8125 14.93301461 17603
1 54227U 22147A   23062.52312539  .00004454  00000+0  42980-3 0  9991
2 54227  97.6548  66.9875 0012219 273.5395  86.4508 14.93312186 17727
1 54227U 22147A   23062.52312548  .00003921  00000+0  37912-3 0  9998
2 54227  97.6549  66.9888 0011878 270.9600  89.0259 14.93309327 17727
1 54227U 22147A   23063.52822636  .00004966  00000+0  47847-3 0  9991
2 54227  97.6547  67.9673 0011909 267.0701  92.9156 14.93319661 17879
1 54227U 22147A   23063.72924562  .00005101  00000+0  49133-3 0  9996
2 54227  97.6547  68.1629 0011914 266.2798  93.7060 14.93321736 17909
1 54227U 22147A   23064.26529612  .00005209  00000+0  50152-3 0  9995
2 54227  97.6546  68.6847 0011919 264.1950  95.7911 14.93326961 17987
1 54227U 22147A   23064.93535602  .00005633  00000+0  54177-3 0  9997
2 54227  97.6545  69.3369 0011917 261.5682  98.4187 14.93334836 18081
1 54227U 22147A   23065.73942344  .00005294  00000+0  50949-3 0  9997
2 54227  97.6542  70.1195 0011934 258.3924 101.5956 14.93342971 18200
1 54227U 22147A   23066.27546570  .00005419  00000+0  52130-3 0  9991
2 54227  97.6546  70.6413 0011939 256.3322 103.6569 14.93349179 18285
1 54227U 22147A   23066.54348637  .00006094  00000+0  58546-3 0  9992
2 54227  97.6548  70.9023 0011915 255.1674 104.8226 14.93353040 18328
1 54227U 22147A   23067.54855647  .00006173  00000+0  59270-3 0  9990
2 54227  97.6542  71.8812 0011831 250.9753 109.0185 14.93366325 18473
1 54227U 22147A   23067.74956957  .00006322  00000+0  60684-3 0  9995
2 54227  97.6544  72.0768 0011808 250.2309 109.7638 14.93369097 18505
1 54227U 22147A   23068.75463023  .00006421  00000+0  61611-3 0  9995
2 54227  97.6551  73.0553 0011784 246.4262 113.5721 14.93381339 18659
1 54227U 22147A   23068.88863753  .00007077  00000+0  67838-3 0  9998
2 54227  97.6552  73.1860 0011808 245.8754 114.1231 14.93384235 18671
1 54227U 22147A   23069.75968129  .00006380  00000+0  61196-3 0  9995
2 54227  97.6554  74.0340 0011809 242.5373 117.4647 14.93394723 18803
1 54227U 22147A   23069.89368726  .00006609  00000+0  63373-3 0  9990
2 54227  97.6555  74.1646 0011817 242.0487 117.9538 14.93397172 18821
1 54227U 22147A   23070.42970990  .00006620  00000+0  63466-3 0  9999
2 54227  97.6557  74.6866 0011835 240.0830 119.9215 14.93404726 18909
1 54227U 22147A   23070.56371532  .00006079  00000+0  58323-3 0  9995
2 54227  97.6559  74.8171 0011837 239.6312 120.3738 14.93405466 18923
1 54227U 22147A   23071.09973514  .00005391  00000+0  51776-3 0  9993
2 54227  97.6562  75.3392 0011854 237.5950 122.4124 14.93411227 19006
1 54227U 22147A   23071.43474629  .00005554  00000+0  53320-3 0  9992
2 54227  97.6561  75.6654 0011878 236.5446 123.4639 14.93415835 19050
1 54227U 22147A   23071.56875055  .00005440  00000+0  52232-3 0  9999
2 54227  97.6561  75.7959 0011885 235.9891 124.0200 14.93417284 19077
1 54227U 22147A   23072.10476641  .00004566  00000+0  43925-3 0  9995
2 54227  97.6562  76.3180 0011930 234.0603 125.9511 14.93421821 19159
1 54227U 22147A   23072.43977552  .00004270  00000+0  41114-3 0  9998
2 54227  97.6562  76.6443 0011963 232.9491 127.0636 14.93424796 19203
1 54227U 22147A   23072.90878705  .00003859  00000+0  37207-3 0  9990
2 54227  97.6561  77.1010 0012020 231.2361 128.7786 14.93428710 19272
1 54227U 22147A   23073.51180033  .00004181  00000+0  40260-3 0  9990
2 54227  97.6560  77.6882 0012089 229.1013 130.9160 14.93434503 19366
1 54227U 22147A   23073.91380781  .00004274  00000+0  41132-3 0  9998
2 54227  97.6559  78.0797 0012131 227.7738 132.2454 14.93438349 19420
1 54227U 22147A   23074.51681724  .00004438  00000+0  42686-3 0  9993
2 54227  97.6558  78.6670 0012210 225.5963 134.4258 14.93444176 19510
1 54227U 22147A   23074.91882266  .00004186  00000+0  40290-3 0  9990
2 54227  97.6556  79.0584 0012267 224.1545 135.8696 14.93446876 19576
1 54227U 22147A   23075.45482775  .00004510  00000+0  43362-3 0  9995
2 54227  97.6557  79.5804 0012324 222.3105 137.7165 14.93452731 19651
1 54227U 22147A   23075.78983101  .00003751  00000+0  36156-3 0  9999
2 54227  97.6558  79.9067 0012356 221.0713 138.9578 14.93453395 19707
1 54227U 22147A   23076.45983513  .00003282  00000+0  31695-3 0  9993
2 54227  97.6555  80.5591 0012430 218.6953 141.3377 14.93457800 19806
1 54227U 22147A   23076.72783631  .00003188  00000+0  30805-3 0  9999
2 54227  97.6554  80.8201 0012456 217.7549 142.2798 14.93459398 19840
1 54227U 22147A   23077.06283693  .00003324  00000+0  32093-3 0  9993
2 54227  97.6553  81.1462 0012493 216.5606 143.4762 14.93462432 19896
1 54227U 22147A   23077.93383772  .00003049  00000+0  29483-3 0  9991
2 54227  97.6551  81.9943 0012574 213.3305 146.7125 14.93467296 20026
1 54227U 22147A   23078.06783738  .00003138  00000+0  30326-3 0  9999
2 54227  97.6550  82.1248 0012587 212.8465 147.1974 14.93468463 20047
1 54227U 22147A   23078.53683605  .00003362  00000+0  32448-3 0  9999
2 54227  97.6549  82.5815 0012625 211.0886 148.9588 14.93472002 20112
1 54227U 22147A   23078.87183459  .00003393  00000+0  32738-3 0  9994
2 54227  97.6548  82.9076 0012656 209.8092 150.2408 14.93474092 20165
1 54227U 22147A   23079.07283323  .00003541  00000+0  34137-3 0  9998
2 54227  97.6548  83.1034 0012674 209.0785 150.9731 14.93475936 20190
1 54227U 22147A   23079.54182965  .00003453  00000+0  33300-3 0  9993
2 54227  97.6544  83.5599 0012705 207.3703 152.6849 14.93478990 20262
1 54227U 22147A   23079.74282793  .00003467  00000+0  33437-3 0  9991
2 54227  97.6545  83.7556 0012722 206.5701 153.4868 14.93480200 20296
1 54227U 22147A   23080.27882156  .00003726  00000+0  35886-3 0  9998
2 54227  97.6549  84.2779 0012771 204.4914 155.5701 14.93484958 20372
1 54227U 22147A   23080.54681802  .00003685  00000+0  35498-3 0  9996
2 54227  97.6549  84.5390 0012808 203.3564 156.7076 14.93486925 20413
1 54227U 22147A   23080.81481387  .00003953  00000+0  38031-3 0  9996
2 54227  97.6550  84.8000 0012833 202.3625 157.7037 14.93489577 20459
1 54227U 22147A   23081.48480189  .00004263  00000+0  40961-3 0  9999
2 54227  97.6551  85.4527 0012876 199.9075 160.1644 14.93495850 20552
1 54227U 22147A   23081.75279634  .00004357  00000+0  41857-3 0  9999
2 54227  97.6552  85.7137 0012902 198.8652 161.2091 14.93498189 20592
1 54227U 22147A   23082.48977907  .00004764  00000+0  45706-3 0  9997
2 54227  97.6555  86.4315 0012948 196.1802 163.9006 14.93505534 20700
1 54227U 22147A   23082.55677731  .00004792  00000+0  45968-3 0  9998
2 54227  97.6556  86.4968 0012951 195.9389 164.1425 14.93506172 20714
1 54227U 22147A   23082.89176743  .00005788  00000+0  55395-3 0  9993
2 54227  97.6557  86.8230 0012971 194.7403 165.3440 14.93511906 20763
1 54227U 22147A   23083.49474683  .00006745  00000+0  64442-3 0  9991
2 54227  97.6560  87.4103 0013000 192.6221 167.4675 14.93521400 20855
1 54227U 22147A   23083.56174435  .00006746  00000+0  64453-3 0  9994
2 54227  97.6560  87.4756 0013007 192.3749 167.7153 14.93522215 20868
1 54227U 22147A   23083.89673238  .00005908  00000+0  56512-3 0  9991
2 54227  97.6563  87.8018 0013042 191.1316 168.9618 14.93523899 20916
1 54227U 22147A   23084.49970747  .00005431  00000+0  51987-3 0  9995
2 54227  97.6565  88.3892 0013096 189.0924 171.0061 14.93530525 21006
1 54227U 22147A   23084.90168922  .00004922  00000+0  47166-3 0  9993
2 54227  97.6566  88.7808 0013129 187.7757 172.3262 14.93534554 21063
1 54227U 22147A   23085.50466022  .00004085  00000+0  39227-3 0  9991
2 54227  97.6567  89.3683 0013168 185.8987 174.2080 14.93539400 21153
1 54227U 22147A   23085.90664003  .00003725  00000+0  35820-3 0  9999
2 54227  97.6567  89.7599 0013169 184.6644 175.4455 14.93542219 21219
1 54227U 22147A   23086.50960822  .00003253  00000+0  31347-3 0  9990
2 54227  97.6565  90.3472 0013231 182.8579 177.2568 14.93545817 21304
1 54227U 22147A   23086.57660459  .00003243  00000+0  31255-3 0  9997
2 54227  97.6565  90.4125 0013235 182.6532 177.4620 14.93546276 21313
1 54227U 22147A   23086.91158611  .00003347  00000+0  32238-3 0  9994
2 54227  97.6564  90.7388 0013276 181.6430 178.4749 14.93548980 21369
1 54227U 22147A   23087.51455171  .00003125  00000+0  30131-3 0  9996
2 54227  97.6563  91.3261 0013349 179.7621 180.3608 14.93552756 21458
1 54227U 22147A   23087.78253576  .00003501  00000+0  33688-3 0  9998
2 54227  97.6565  91.5872 0013400 178.9193 181.2058 14.93555386 21498
1 54227U 22147A   23088.51949075  .00003900  00000+0  37460-3 0  9991
2 54227  97.6563  92.3050 0013494 176.6497 183.4816 14.93561189 21605
1 54227U 22147A   23088.72047802  .00004091  00000+0  39265-3 0  9998
2 54227  97.6562  92.5008 0013505 176.0484 184.0845 14.93562840 21639
1 54227U 22147A   23089.59141999  .00004313  00000+0  41357-3 0  9998
2 54227  97.6561  93.3491 0013607 173.3754 186.7648 14.93569830 21766
1 54227U 22147A   23090.59634762  .00004755  00000+0  45524-3 0  9995
2 54227  97.6558  94.3279 0013717 170.2060 189.9430 14.93579054 21915
1 54227U 22147A   23091.53427532  .00003966  00000+0  38053-3 0  9997
2 54227  97.6556  95.2415 0013838 167.1468 193.0108 14.93585084 22050
